[{"OBJECT_NAME":"STARLINK-35088","OBJECT_ID":"2025-189X","EPOCH":"2026-03-09T16:39:07.666272","MEAN_MOTION":15.30195891,"ECCENTRICITY":0.00012529,"INCLINATION":53.1599,"RA_OF_ASC_NODE":206.9909,"ARG_OF_PERICENTER":52.8689,"MEAN_ANOMALY":307.2426,"EPHEMERIS_TYPE":0,"CLASSIFICATION_TYPE":"U","NORAD_CAT_ID":65344,"ELEMENT_SET_NO":999,"REV_AT_EPOCH":3111,"BSTAR":0.0013369662,"MEAN_MOTION_DOT":0.00039443,"MEAN_MOTION_DDOT":0},{"OBJECT_NAME":"FENGYUN 1C DEB","OBJECT_ID":"1999-025BZU","EPOCH":"2026-03-09T17:19:51.665664","MEAN_MOTION":15.28412118,"ECCENTRICITY":0.00188802,"INCLINATION":98.9598,"RA_OF_ASC_NODE":354.2029,"ARG_OF_PERICENTER":82.3682,"MEAN_ANOMALY":277.9697,"EPHEMERIS_TYPE":0,"CLASSIFICATION_TYPE":"U","NORAD_CAT_ID":31614,"ELEMENT_SET_NO":999,"REV_AT_EPOCH":97742,"BSTAR":0.011500831,"MEAN_MOTION_DOT":0.0033373,"MEAN_MOTION_DDOT":0}]
